ONEWEB-0452             
1 51644U 22012Y   25340.55709045  .00000104  00000+0  23511-3 0  9995
2 51644  87.9113  44.1892 0001940 108.6005 251.5337 13.17649338188304
ONEWEB-0456             
1 51646U 22012AA  25340.54063956 -.00000134  00000+0 -42069-3 0  9994
2 51646  87.8826  74.6345 0001769  99.6072 260.5255 13.10375900184117
ONEWEB-0457             
1 51647U 22012AB  25340.51740400  .00001505  00000+0  42734-2 0  9997
2 51647  87.8801  74.6866 0001247 110.9778 249.1482 13.10367088184113
ONEWEB-0458             
1 51648U 22012AC  25340.53897754 -.00000207  00000+0 -62896-3 0  9997
2 51648  87.8823  74.6554 0001719 109.3465 250.7849 13.10376667184074
ONEWEB-0461             
1 51649U 22012AD  25340.65496666  .00000037  00000+0  63123-4 0  9992
2 51649  87.9123  44.1289 0001582 100.2374 259.8936 13.17649437188530
ONEWEB-0463             
1 51650U 22012AE  25340.63640358  .00000081  00000+0  17437-3 0  9996
2 51650  87.9108  44.1776 0001763 102.7431 257.3897 13.17648141188314
ONEWEB-0464             
1 51651U 22012AF  25340.23022317 -.00000364  00000+0 -10790-2 0  9992
2 51651  87.8810  74.7532 0001831  97.8365 262.2971 13.10375660184050
ONEWEB-0468             
1 51652U 22012AG  25340.23686803 -.00000020  00000+0 -94092-4 0  9997
2 51652  87.8811  74.7448 0001843 104.1331 256.0002 13.10376192184031
ONEWEB-0473             
1 51653U 22012AH  25340.52735271 -.00000656  00000+0 -19161-2 0  9991
2 51653  87.8808  74.6902 0001714 106.9190 253.2126 13.10372996184070
ONEWEB-0474             
1 51654U 22012AJ  25340.51905539 -.00000547  00000+0 -16037-2 0  9995
2 51654  87.8814  74.6578 0001885 102.4458 257.6880 13.10370349184068
ONEWEB-0475             
1 51655U 22012AK  25340.64821297  .00000074  00000+0  15624-3 0  9993
2 51655  87.9114  44.1637 0002423 105.8621 254.2777 13.17648679188332
ONEWEB-0490             
1 54113U 22138A   25340.55993160  .00000029  00000+0  41001-4 0  9992
2 54113  87.9205 343.2847 0001961  86.3543 273.7814 13.19724548151423
ONEWEB-0492             
1 54114U 22138B   25340.43356511  .00000072  00000+0  14748-3 0  9998
2 54114  87.9201 343.3256 0001861  82.6943 277.4402 13.19725603151413
ONEWEB-0495             
1 54115U 22138C   25340.56307585  .00000042  00000+0  73190-4 0  9994
2 54115  87.9190 343.3034 0002458  83.3490 276.7923 13.19723512151410
ONEWEB-0497             
1 54116U 22138D   25340.57572010  .00000061  00000+0  12087-3 0  9991
2 54116  87.9201 343.2871 0001859  88.0402 272.0944 13.19723653151408
ONEWEB-0499             
1 54117U 22138E   25340.55914691  .00000074  00000+0  15164-3 0  9998
2 54117  87.9194 343.3034 0001959  92.5904 267.5453 13.19725537151418
