[{"OBJECT_NAME":"ONEWEB-0452","OBJECT_ID":"2022-012Y","EPOCH":"2025-12-06T13:22:12.614880","MEAN_MOTION":13.17649338,"ECCENTRICITY":0.000194,"INCLINATION":87.9113,"RA_OF_ASC_NODE":44.1892,"ARG_OF_PERICENTER":108.6005,"MEAN_ANOMALY":251.5337,"EPHEMERIS_TYPE":0,"CLASSIFICATION_TYPE":"U","NORAD_CAT_ID":51644,"ELEMENT_SET_NO":999,"REV_AT_EPOCH":18830,"BSTAR":0.00023510808,"MEAN_MOTION_DOT":1.04e-6,"MEAN_MOTION_DDOT":0},{"OBJECT_NAME":"ONEWEB-0456","OBJECT_ID":"2022-012AA","EPOCH":"2025-12-06T12:58:31.257984","MEAN_MOTION":13.103759,"ECCENTRICITY":0.00017697,"INCLINATION":87.8826,"RA_OF_ASC_NODE":74.6345,"ARG_OF_PERICENTER":99.6072,"MEAN_ANOMALY":260.5255,"EPHEMERIS_TYPE":0,"CLASSIFICATION_TYPE":"U","NORAD_CAT_ID":51646,"ELEMENT_SET_NO":999,"REV_AT_EPOCH":18411,"BSTAR":-0.00042068829,"MEAN_MOTION_DOT":-1.34e-6,"MEAN_MOTION_DDOT":0},{"OBJECT_NAME":"ONEWEB-0457","OBJECT_ID":"2022-012AB","EPOCH":"2025-12-06T12:25:03.705600","MEAN_MOTION":13.10367088,"ECCENTRICITY":0.00012471,"INCLINATION":87.8801,"RA_OF_ASC_NODE":74.6866,"ARG_OF_PERICENTER":110.9778,"MEAN_ANOMALY":249.1482,"EPHEMERIS_TYPE":0,"CLASSIFICATION_TYPE":"U","NORAD_CAT_ID":51647,"ELEMENT_SET_NO":999,"REV_AT_EPOCH":18411,"BSTAR":0.0042734345,"MEAN_MOTION_DOT":1.505e-5,"MEAN_MOTION_DDOT":0},{"OBJECT_NAME":"ONEWEB-0458","OBJECT_ID":"2022-012AC","EPOCH":"2025-12-06T12:56:07.659456","MEAN_MOTION":13.10376667,"ECCENTRICITY":0.00017193,"INCLINATION":87.8823,"RA_OF_ASC_NODE":74.6554,"ARG_OF_PERICENTER":109.3465,"MEAN_ANOMALY":250.7849,"EPHEMERIS_TYPE":0,"CLASSIFICATION_TYPE":"U","NORAD_CAT_ID":51648,"ELEMENT_SET_NO":999,"REV_AT_EPOCH":18407,"BSTAR":-0.00062895526,"MEAN_MOTION_DOT":-2.07e-6,"MEAN_MOTION_DDOT":0},{"OBJECT_NAME":"ONEWEB-0461","OBJECT_ID":"2022-012AD","EPOCH":"2025-12-06T15:43:09.119424","MEAN_MOTION":13.17649437,"ECCENTRICITY":0.00015826,"INCLINATION":87.9123,"RA_OF_ASC_NODE":44.1289,"ARG_OF_PERICENTER":100.2374,"MEAN_ANOMALY":259.8936,"EPHEMERIS_TYPE":0,"CLASSIFICATION_TYPE":"U","NORAD_CAT_ID":51649,"ELEMENT_SET_NO":999,"REV_AT_EPOCH":18853,"BSTAR":6.3122985e-5,"MEAN_MOTION_DOT":3.7e-7,"MEAN_MOTION_DDOT":0},{"OBJECT_NAME":"ONEWEB-0463","OBJECT_ID":"2022-012AE","EPOCH":"2025-12-06T15:16:25.269312","MEAN_MOTION":13.17648141,"ECCENTRICITY":0.00017637,"INCLINATION":87.9108,"RA_OF_ASC_NODE":44.1776,"ARG_OF_PERICENTER":102.7431,"MEAN_ANOMALY":257.3897,"EPHEMERIS_TYPE":0,"CLASSIFICATION_TYPE":"U","NORAD_CAT_ID":51650,"ELEMENT_SET_NO":999,"REV_AT_EPOCH":18831,"BSTAR":0.00017436893,"MEAN_MOTION_DOT":8.1e-7,"MEAN_MOTION_DDOT":0},{"OBJECT_NAME":"ONEWEB-0464","OBJECT_ID":"2022-012AF","EPOCH":"2025-12-06T05:31:31.281888","MEAN_MOTION":13.1037566,"ECCENTRICITY":0.00018319,"INCLINATION":87.881,"RA_OF_ASC_NODE":74.7532,"ARG_OF_PERICENTER":97.8365,"MEAN_ANOMALY":262.2971,"EPHEMERIS_TYPE":0,"CLASSIFICATION_TYPE":"U","NORAD_CAT_ID":51651,"ELEMENT_SET_NO":999,"REV_AT_EPOCH":18405,"BSTAR":-0.0010790404,"MEAN_MOTION_DOT":-3.64e-6,"MEAN_MOTION_DDOT":0},{"OBJECT_NAME":"ONEWEB-0468","OBJECT_ID":"2022-012AG","EPOCH":"2025-12-06T05:41:05.397792","MEAN_MOTION":13.10376192,"ECCENTRICITY":0.00018433,"INCLINATION":87.8811,"RA_OF_ASC_NODE":74.7448,"ARG_OF_PERICENTER":104.1331,"MEAN_ANOMALY":256.0002,"EPHEMERIS_TYPE":0,"CLASSIFICATION_TYPE":"U","NORAD_CAT_ID":51652,"ELEMENT_SET_NO":999,"REV_AT_EPOCH":18403,"BSTAR":-9.4092407e-5,"MEAN_MOTION_DOT":-2.0e-7,"MEAN_MOTION_DDOT":0},{"OBJECT_NAME":"ONEWEB-0473","OBJECT_ID":"2022-012AH","EPOCH":"2025-12-06T12:39:23.274144","MEAN_MOTION":13.10372996,"ECCENTRICITY":0.00017149,"INCLINATION":87.8808,"RA_OF_ASC_NODE":74.6902,"ARG_OF_PERICENTER":106.919,"MEAN_ANOMALY":253.2126,"EPHEMERIS_TYPE":0,"CLASSIFICATION_TYPE":"U","NORAD_CAT_ID":51653,"ELEMENT_SET_NO":999,"REV_AT_EPOCH":18407,"BSTAR":-0.0019160973,"MEAN_MOTION_DOT":-6.56e-6,"MEAN_MOTION_DDOT":0},{"OBJECT_NAME":"ONEWEB-0474","OBJECT_ID":"2022-012AJ","EPOCH":"2025-12-06T12:27:26.385696","MEAN_MOTION":13.10370349,"ECCENTRICITY":0.00018856,"INCLINATION":87.8814,"RA_OF_ASC_NODE":74.6578,"ARG_OF_PERICENTER":102.4458,"MEAN_ANOMALY":257.688,"EPHEMERIS_TYPE":0,"CLASSIFICATION_TYPE":"U","NORAD_CAT_ID":51654,"ELEMENT_SET_NO":999,"REV_AT_EPOCH":18406,"BSTAR":-0.0016036646,"MEAN_MOTION_DOT":-5.47e-6,"MEAN_MOTION_DDOT":0},{"OBJECT_NAME":"ONEWEB-0475","OBJECT_ID":"2022-012AK","EPOCH":"2025-12-06T15:33:25.600608","MEAN_MOTION":13.17648679,"ECCENTRICITY":0.00024239,"INCLINATION":87.9114,"RA_OF_ASC_NODE":44.1637,"ARG_OF_PERICENTER":105.8621,"MEAN_ANOMALY":254.2777,"EPHEMERIS_TYPE":0,"CLASSIFICATION_TYPE":"U","NORAD_CAT_ID":51655,"ELEMENT_SET_NO":999,"REV_AT_EPOCH":18833,"BSTAR":0.00015624141,"MEAN_MOTION_DOT":7.4e-7,"MEAN_MOTION_DDOT":0},{"OBJECT_NAME":"ONEWEB-0490","OBJECT_ID":"2022-138A","EPOCH":"2025-12-06T13:26:18.090240","MEAN_MOTION":13.19724548,"ECCENTRICITY":0.00019613,"INCLINATION":87.9205,"RA_OF_ASC_NODE":343.2847,"ARG_OF_PERICENTER":86.3543,"MEAN_ANOMALY":273.7814,"EPHEMERIS_TYPE":0,"CLASSIFICATION_TYPE":"U","NORAD_CAT_ID":54113,"ELEMENT_SET_NO":999,"REV_AT_EPOCH":15142,"BSTAR":4.1000584e-5,"MEAN_MOTION_DOT":2.9e-7,"MEAN_MOTION_DDOT":0},{"OBJECT_NAME":"ONEWEB-0492","OBJECT_ID":"2022-138B","EPOCH":"2025-12-06T10:24:20.025504","MEAN_MOTION":13.19725603,"ECCENTRICITY":0.0001861,"INCLINATION":87.9201,"RA_OF_ASC_NODE":343.3256,"ARG_OF_PERICENTER":82.6943,"MEAN_ANOMALY":277.4402,"EPHEMERIS_TYPE":0,"CLASSIFICATION_TYPE":"U","NORAD_CAT_ID":54114,"ELEMENT_SET_NO":999,"REV_AT_EPOCH":15141,"BSTAR":0.00014747985,"MEAN_MOTION_DOT":7.2e-7,"MEAN_MOTION_DDOT":0},{"OBJECT_NAME":"ONEWEB-0495","OBJECT_ID":"2022-138C","EPOCH":"2025-12-06T13:30:49.753440","MEAN_MOTION":13.19723512,"ECCENTRICITY":0.00024581,"INCLINATION":87.919,"RA_OF_ASC_NODE":343.3034,"ARG_OF_PERICENTER":83.349,"MEAN_ANOMALY":276.7923,"EPHEMERIS_TYPE":0,"CLASSIFICATION_TYPE":"U","NORAD_CAT_ID":54115,"ELEMENT_SET_NO":999,"REV_AT_EPOCH":15141,"BSTAR":7.3189505e-5,"MEAN_MOTION_DOT":4.2e-7,"MEAN_MOTION_DDOT":0},{"OBJECT_NAME":"ONEWEB-0497","OBJECT_ID":"2022-138D","EPOCH":"2025-12-06T13:49:02.216640","MEAN_MOTION":13.19723653,"ECCENTRICITY":0.00018598,"INCLINATION":87.9201,"RA_OF_ASC_NODE":343.2871,"ARG_OF_PERICENTER":88.0402,"MEAN_ANOMALY":272.0944,"EPHEMERIS_TYPE":0,"CLASSIFICATION_TYPE":"U","NORAD_CAT_ID":54116,"ELEMENT_SET_NO":999,"REV_AT_EPOCH":15140,"BSTAR":0.0001208721,"MEAN_MOTION_DOT":6.1e-7,"MEAN_MOTION_DDOT":0},{"OBJECT_NAME":"ONEWEB-0499","OBJECT_ID":"2022-138E","EPOCH":"2025-12-06T13:25:10.293024","MEAN_MOTION":13.19725537,"ECCENTRICITY":0.00019591,"INCLINATION":87.9194,"RA_OF_ASC_NODE":343.3034,"ARG_OF_PERICENTER":92.5904,"MEAN_ANOMALY":267.5453,"EPHEMERIS_TYPE":0,"CLASSIFICATION_TYPE":"U","NORAD_CAT_ID":54117,"ELEMENT_SET_NO":999,"REV_AT_EPOCH":15141,"BSTAR":0.00015163669,"MEAN_MOTION_DOT":7.4e-7,"MEAN_MOTION_DDOT":0}]
